satname,norad_id,inclination_deg,eccentricity,mean_motion_rev_per_day,perigee_km,apogee_km,l1,l2
STARLINK-1234,45190,53.0392,0.0004708,15.73644751,345.3235711383204,351.65736356157686,1 45190U 20012N   26152.76737119  .00082106  00000+0  57234-3 0  9991,2 45190  53.0392 270.5394 0004708 233.9002 126.1580 15.73644751349070
STARLINK-1269,45197,53.1576,0.0001812,15.34515596,461.1201881031511,463.59918410219507,1 45197U 20012V   26153.77619626  .00049077  00000+0  14488-2 0  9995,2 45197  53.1576   3.5253 0001812 119.6069 240.5115 15.34515596347957
STARLINK-1154,45198,53.0428,3.62e-05,15.63303147,377.8787209407001,378.3678741862441,1 45198U 20012W   26153.73687037  .00040372  00000+0  43513-3 0  9994,2 45198  53.0428 319.7192 0000362 247.7376 112.3599 15.63303147348514
STARLINK-1199,45201,53.1566,0.0002983,15.3443702,460.5526213556932,464.63380099968253,1 45201U 20012Z   26153.74721953  .00039682  00000+0  11779-2 0  9996,2 45201  53.1566 347.9274 0002983 193.1497 166.9429 15.34437020348193
STARLINK-1209,45206,53.0389,0.0007508,15.65253687,367.4408726521333,377.5776430729411,1 45206U 20012AE  26153.64221291  .00050422  00000+0  50067-3 0  9999,2 45206  53.0389 280.4772 0007508 218.2808 141.7674 15.65253687348166
STARLINK-1231,45212,53.0411,0.000388,15.2744789,480.7824157144505,486.10700312095923,1 45212U 20012AL  26153.77303122  .00031542  00000+0  11664-2 0  9995,2 45212  53.0411 342.9091 0003880  64.7027 295.4372 15.27447890348209
STARLINK-1271,45217,53.1576,0.0001323,15.34653906,461.04373878103434,462.85362545252246,1 45217U 20012AR  26153.74533273  .00044255  00000+0  13027-2 0  9999,2 45217  53.1576 348.0643 0001323 205.2585 154.8353 15.34653906348198
STARLINK-1191,45222,53.157,0.0003679,15.38582776,447.78714004954145,452.81150349510244,1 45222U 20012AW  26153.73862588  .00039859  00000+0  10356-2 0  9994,2 45222  53.1570 321.2443 0003679 181.5594 178.5400 15.38582776348579
STARLINK-1212,45223,53.041,0.0001887,15.66582933,367.41697470658164,369.96322725449227,1 45223U 20012AX  26153.85590195  .00053515  00000+0  50397-3 0  9995,2 45223  53.0410 295.0822 0001887 115.8786 244.2424 15.66582933348936
STARLINK-1215,45225,53.1572,0.0001839,15.34708975,460.5271938013493,463.04291713334896,1 45225U 20012AZ  26153.74495769  .00043884  00000+0  12897-2 0  9996,2 45225  53.1572 322.3382 0001839 240.8897 119.1922 15.34708975348510
STARLINK-1221,45227,53.0643,0.0001977,15.44615681,431.16108716723556,433.85401602293587,1 45227U 20012BB  26152.51336014  .00016197  00000+0  35080-3 0  9996,2 45227  53.0643 231.5435 0001977 291.8313  68.2482 15.44615681349655
STARLINK-1222,45228,53.0542,0.0001796,15.54768245,401.60853520829187,404.04425726021964,1 45228U 20012BC  26153.68137037  .00037293  00000+0  55554-3 0  9998,2 45228  53.0542 293.7138 0001796  11.1509 348.9541 15.54768245348821
STARLINK-1226,45229,53.1558,0.0002484,15.43479645,434.15640682301,437.5415950682809,1 45229U 20012BD  26153.73824911  .00063540  00000+0  13944-2 0  9999,2 45229  53.1558 318.7373 0002484 233.1066 126.9713 15.43479645348509
STARLINK-1227,45230,53.1548,0.0003054,15.43588371,433.44813164790594,437.6099188561302,1 45230U 20012BE  26153.74846618  .00055157  00000+0  12084-2 0  9999,2 45230  53.1548 318.7979 0003054 214.7088 145.3720 15.43588371348628
STARLINK-1246,45235,53.1563,0.0002792,15.3449415,460.5135364043117,464.333305343328,1 45235U 20012BK  26153.78263292  .00031153  00000+0  92649-3 0  9995,2 45235  53.1563   3.1215 0002792 178.6845 181.4166 15.34494150348014
STARLINK-1270,45237,53.0413,0.0001606,15.61375893,382.59584544780955,384.7677416442966,1 45237U 20012BM  26153.66275045  .00093532  00000+0  10713-2 0  9993,2 45237  53.0413 297.2331 0001606 253.9668 106.1168 15.61375893348880
STARLINK-1279,45360,53.0376,0.0007852,15.73630844,343.24831943932895,353.8118774507275,1 45360U 20019A   26151.98285978  .00083764  00000+0  58341-3 0  9992,2 45360  53.0376  49.2203 0007852  91.5329 268.6588 15.73630844343728
STARLINK-1301,45361,53.0369,0.0005408,15.75981312,338.2060295230949,345.4743568552476,1 45361U 20019B   26151.97078152  .00091429  00000+0  57474-3 0  9999,2 45361  53.0369  52.0322 0005408 114.9532 245.2050 15.75981312343698
STARLINK-1262,45366,53.1523,0.0003729,15.3342309,463.0563313530947,468.160396645565,1 45366U 20019G   26153.16384278  .00039967  00000+0  12248-2 0  9994,2 45366  53.1523 132.4319 0003729  60.6235 299.5139 15.33423090342693
STARLINK-1273,45367,53.0426,0.0005454,15.56559227,393.92843286549305,401.31943289107676,1 45367U 20019H   26153.23464541  .00094342  00000+0  12955-2 0  9998,2 45367  53.0426 108.8154 0005454  44.1456 315.9990 15.56559227343010
STARLINK-1277,45369,53.0422,0.000538,15.63458317,374.0416327398898,381.3108878079438,1 45369U 20019K   26154.00002315  .00073876  00000+0  78301-3 0  9990,2 45369  53.0422  99.3779 0005380  38.5130  76.5656 15.63458317  5952
STARLINK-1281,45370,53.1547,0.0004985,15.34351301,459.43775670992636,466.2582187426897,1 45370U 20019L   26153.17902667  .00051365  00000+0  15229-2 0  9996,2 45370  53.1547 132.0276 0004985  51.7869 308.3582 15.34351301342700
STARLINK-1300,45374,53.1579,0.0004589,15.3480896,458.3492909023098,464.626698722549,1 45374U 20019Q   26153.25795566  .00054354  00000+0  15871-2 0  9991,2 45374  53.1579 131.5796 0004589  66.7762 293.3724 15.34808960342718
STARLINK-1302,45375,53.0452,0.0005141,15.66709442,364.85854281174215,371.7952569936224,1 45375U 20019R   26153.09194389  .00062047  00000+0  57963-3 0  9997,2 45375  53.0452 100.0305 0005141  56.3973 303.7532 15.66709442343128
STARLINK-1304,45376,53.0415,0.0005497,15.62089405,377.90674326364933,385.33842294931765,1 45376U 20019S   26153.14014102  .00060651  00000+0  68022-3 0  9995,2 45376  53.0415 100.9175 0005497  61.3104 298.8461 15.62089405343118
STARLINK-1305,45377,53.0385,0.0001761,15.70565375,356.0939986366311,358.46621254122056,1 45377U 20019T   26152.10752749  .00068602  00000+0  54659-3 0  9992,2 45377  53.0385  84.9354 0001761 167.5645 192.5415 15.70565375343252
STARLINK-1319,45379,53.038,0.0004026,15.76427197,337.8680382283337,343.27794351298235,1 45379U 20019V   26153.93890019  .00011018  00000+0  72156-4 0  9991,2 45379  53.0380  67.7818 0004026  77.0326 283.1142 15.76427197343654
STARLINK-1266,45383,53.0453,0.0001618,15.65234729,371.4715032330196,373.65603000109695,1 45383U 20019Z   26153.10481223  .00052950  00000+0  52636-3 0  9998,2 45383  53.0453  86.1802 0001618 130.4232 229.6924 15.65234729343313
STARLINK-1267,45384,53.0435,0.0007043,15.64746419,369.21264551819786,378.72366083696306,1 45384U 20019AA  26153.19849087  .00052345  00000+0  53009-3 0  9997,2 45384  53.0435  76.9269 0007043  92.4336 267.7485 15.64746419343451
STARLINK-1272,45386,53.0403,0.0007831,15.68886813,356.8051598349102,367.3616930668177,1 45386U 20019AC  26152.15222326  .00062695  00000+0  53549-3 0  9993,2 45386  53.0403  61.0495 0007831  72.9009 287.2864 15.68886813343588
STARLINK-1274,45387,53.0202,0.0008208,15.60899639,379.50591572606027,390.6083752352815,1 45387U 20019AD  26154.00002315  .00086957  00000+0  10142-2 0  9992,2 45387  53.0202  50.8667 0008208 115.8243 235.7753 15.60899639  5907
STARLINK-1280,45388,53.0374,0.0004652,15.77069164,335.62487794599565,341.87426921405586,1 45388U 20019AE  26152.93761153  .00098962  00000+0  59227-3 0  9992,2 45388  53.0374  65.1793 0004652  93.8675 266.2877 15.77069164343585
STARLINK-1283,45389,53.0407,0.0003695,15.7025133,355.68904777742955,360.66718464831047,1 45389U 20019AF  26152.93974171  .00069058  00000+0  55728-3 0  9995,2 45389  53.0407  56.3116 0003695 101.1546 258.9886 15.70251330343725
STARLINK-1284,45390,53.0411,0.0004443,15.69189942,358.22107409140153,364.2096626059165,1 45390U 20019AG  26153.07975560  .00066812  00000+0  56358-3 0  9991,2 45390  53.0411  79.4451 0004443  31.4971 328.6310 15.69189942343408
STARLINK-1297,45395,53.0419,0.0006407,15.67688368,361.1974435616821,369.83876321116077,1 45395U 20019AM  26153.91720761  .00063598  00000+0  57062-3 0  9991,2 45395  53.0419  74.2840 0006407  44.3110 315.8417 15.67688368342731
STARLINK-1307,45397,53.0525,0.0002671,15.5613232,397.0529742022727,400.6732476615325,1 45397U 20019AP  26153.09964764  .00039314  00000+0  55651-3 0  9996,2 45397  53.0525  83.7251 0002671  79.0820 281.0491 15.56132320343179
STARLINK-1255,45399,53.035,0.000552,15.65014324,369.4708274511913,376.9243008099929,1 45399U 20019AR  26151.95927054  .00052275  00000+0  52403-3 0  9995,2 45399  53.0350  57.5819 0005520  93.0498 267.1148 15.65014324343424
STARLINK-1260,45404,53.1572,0.0005522,15.37172064,450.7034968994358,458.2494352113481,1 45404U 20019AW  26153.10250875  .00066203  00000+0  17869-2 0  9993,2 45404  53.1572  95.2110 0005522  68.9062 291.2532 15.37172064342925
STARLINK-1263,45405,53.1562,0.0004392,15.34326346,459.9175709893916,465.9267573592024,1 45405U 20019AX  26152.08534331  .00049688  00000+0  14752-2 0  9998,2 45405  53.1562 101.1122 0004392  74.8115 285.3373 15.34326346342753
STARLINK-1265,45406,53.1567,0.0005142,15.37567644,449.79177472449464,456.81722916509443,1 45406U 20019AY  26153.09634393  .00058867  00000+0  15715-2 0  9999,2 45406  53.1567  95.2457 0005142  55.3989 304.7500 15.37567644342928
STARLINK-1278,45408,53.04,0.0006768,15.6836892,359.00435700342223,368.12992773052974,1 45408U 20019BA  26152.22609866  .00059636  00000+0  52093-3 0  9998,2 45408  53.0400  81.5936 0006768  60.4529 299.7161 15.68368920343025
STARLINK-1296,45412,53.1548,0.0005763,15.37792924,448.7007260380333,456.573876497675,1 45412U 20019BE  26153.13678558  .00058868  00000+0  15599-2 0  9993,2 45412  53.1548  94.7562 0005763  56.7724 303.3831 15.37792924342930
STARLINK-1309,45414,53.0609,0.0006259,15.67468207,361.92829950155283,370.3707974029039,1 45414U 20019BG  26152.17859394  .00054089  00000+0  49102-3 0  9996,2 45414  53.0609  75.7076 0006259  36.2877 323.8562 15.67468207343083
